[Satellite]
VERSION=1.1
NAME=UNISAT 3
NICKNAME=UNISAT 3
TLE1=1 28373U 04025H   15054.85924535  .00000568  00000-0  17097-3 0  9996
TLE2=2 28373  98.2394   5.8596 0068268 254.6145 164.5947 14.44959187561954
